LARES-2                 
1 53105U 22080A   24365.44402279  .00000007  00000+0  00000+0 0  9993
2 53105  70.1355 128.3908 0004816  92.9173 267.1849  6.38965181 57565
GREENCUBE               
1 53106U 22080B   24357.45145358 -.00000003  00000+0  00000+0 0  9995
2 53106  70.1377 127.1156 0008284  64.6124 295.5392  6.42557665 57362
ROBUSTA-1F (MTCUBE 2)   
1 53109U 22080E   24365.35174012 -.00000003  00000+0  00000+0 0  9995
2 53109  70.1231 123.9128 0008380  45.3679 314.7663  6.42584036 57766
STARLINK-4410           
1 53204U 22084R   24365.45593029  .00000889  00000+0  73818-4 0  9992
2 53204  97.6589  63.4836 0000194  78.5327 281.5919 15.01263417134829
COSMOS 2558             
1 53323U 22089A   24365.94448059  .00043544  00000+0  12802-2 0  9994
2 53323  97.2408  99.7302 0006888 125.7004 234.4881 15.34949513135404
TECMS                   
1 53346U 22090A   24365.87513662  .00012593  00000+0  56496-3 0  9994
2 53346  97.3789  76.0629 0005962 164.6104 195.5314 15.21319484133733
DONGPO 04               
1 53451U 22098H   24365.92123086  .00038586  00000+0  13113-2 0  9990
2 53451  97.5387 107.6253 0005179 136.7711 223.3937 15.30352191132477
DONGPO 02               
1 53452U 22098J   24365.93451714  .00033387  00000+0  12371-2 0  9993
2 53452  97.5260 105.7605 0006386 107.8232 252.3703 15.27546391132438
DONGPO 01               
1 53453U 22098K   24365.89216365  .00035123  00000+0  13177-2 0  9995
2 53453  97.5328 106.2769 0001813 120.6602 239.4816 15.27140921132424
STARLINK-4400           
1 53468U 22099D   24365.61731751  .00000477  00000+0  41736-4 0  9991
2 53468  97.6565 123.6509 0001042  98.0605 262.0737 15.01267087130858
STARLINK-4621           
1 53676U 22105AE  24365.42699181  .00001790  00000+0  14389-3 0  9991
2 53676  97.6580 243.4550 0001754  90.8019 269.3406 15.01261053128084
SHERPA-LTC2             
1 53754U 22107BG  24365.57143788  .00010460  00000+0  56312-3 0  9999
2 53754  53.2384 306.7436 0426202 181.7250 178.2276 14.61421145124289
CENTISPACE-1 S3         
1 53757U 22108A   24365.85697279  .00002763  00000+0  60855-3 0  9997
2 53757  53.5326  98.9488 0009747  14.7349 345.3908 14.60098374123587
CENTISPACE-1 S4         
1 53758U 22108B   24365.91359762  .00003625  00000+0  77905-3 0  9999
2 53758  53.5300  98.3795 0008860   1.1962 358.9032 14.60520403123593
BLUEWALKER-3            
1 53807U 22111AL  24365.74395940  .00017959  00000+0  59504-3 0  9997
2 53807  53.2352   4.5191 0007462 347.6387  12.4431 15.31358526128298
YUNHAI-1 03             
1 53877U 22115A   24365.87805334  .00000906  00000+0  34586-3 0  9992
2 53877  98.5310   0.4101 0001113 158.8486 201.2745 14.33157041119146
CENTISPACE-1 S5         
1 54020U 22126A   24365.87695834  .00003371  00000+0  71744-3 0  9993
2 54020  54.9964 184.4177 0010622 319.9336  40.0872 14.61123220119023
CENTISPACE-1 S6         
1 54021U 22126B   24365.87865684  .00001375  00000+0  31675-3 0  9997
2 54021  54.9976 184.4343 0012523 320.3699  39.6377 14.60840924119011
OTB-3-GAZELLE           
1 54023U 22127A   24365.80479049  .00000722  00000+0  23124-3 0  9994
2 54023  98.3566 355.9312 0013324   3.5038 356.6243 14.42362437117467
ASO-S                   
1 54029U 22129A   24365.84817233  .00000767  00000+0  20208-3 0  9996
2 54029  98.2711   7.8332 0013222 293.9320  66.0490 14.51680271118034
HJ-2E                   
1 54035U 22132A   24365.93910963  .00027242  00000+0  10865-2 0  9995
2 54035  97.3827   9.1942 0016090  30.2439 329.9724 15.25037853123312
COSMOS 2561             
1 54109U 22137A   24365.90131926  .00019645  00000+0  55028-3 0  9992
2 54109  96.9957  76.8248 0013365 171.0676 189.0810 15.36561050124058
GONETS-M 23             
1 54150U 22139A   24365.88407854  .00000042  00000+0  23089-3 0  9996
2 54150  82.5074 319.6784 0020658 308.1788  51.7431 12.42881823 99397
GONETS-M 24             
1 54151U 22139B   24365.85782087  .00000040  00000+0  21616-3 0  9990
2 54151  82.4992 319.1184 0015940 320.0754  39.9152 12.42884410 99392
GONETS-M 25             
1 54152U 22139C   24365.84376285  .00000038  00000+0  20692-3 0  9999
2 54152  82.5057 319.5276 0019677 317.6135  42.3424 12.42880439 99395
SKIF-D                  
1 54153U 22139D   24363.43605692  .00000000  00000+0  00000+0 0  9996
2 54153  89.9820  96.7863 0007556 353.6889   6.3582  5.00438531 37306
MATS                    
1 54227U 22147A   24365.85241299  .00007975  00000+0  64206-3 0  9994
2 54227  97.6672   1.1610 0014670 188.8656 171.2310 15.00135691117654
JILIN-1 GAOFEN 03D54    
1 54254U 22155D   24365.92443588  .00039121  00000+0  13733-2 0  9992
2 54254  97.5740 118.3075 0009456 118.5831 241.6361 15.29263826117624
EOS-6 (OCEANSAT-3)      
1 54361U 22158A   24365.88520415  .00001298  00000+0  36882-3 0  9999
2 54361  98.3538 100.2852 0001229 109.0200 251.1125 14.47013818110715
ASTROCAST-0304          
1 54367U 22158G   24365.85771762  .00045891  00000+0  93269-3 0  9994
2 54367  97.4412 111.9187 0008881  92.9029 267.3237 15.46138233117014
ASTROCAST-0302          
1 54369U 22158J   24365.89387163  .00046152  00000+0  94296-3 0  9990
2 54369  97.4445 112.3031 0007706  97.3767 262.8358 15.45993105117030
ASTROCAST-0301          
1 54370U 22158K   24365.87959724  .00040043  00000+0  81687-3 0  9991
2 54370  97.4494 112.4899 0005524 102.7456 257.4411 15.46085831117030
CAS-5A (FO-118)         
1 54684U 22167C   24365.87797121  .00184988  00000+0  20707-2 0  9992
2 54684  97.6125 159.2513 0004198 180.4197 179.7058 15.62092380114613
DONGPO 09               
1 54685U 22167D   24365.85797465  .00024439  00000+0  10980-2 0  9998
2 54685  97.6350 149.9950 0001764 199.6153 160.5014 15.21141467113968
DONGPO 08               
1 54686U 22167E   24365.92134886  .00020894  00000+0  97980-3 0  9996
2 54686  97.6295 149.2712 0009615 227.9003 132.1415 15.19661576113952
2022-167F               
1 54687U 22167F   24365.89455395  .00057066  00000+0  18846-2 0  9998
2 54687  97.6041 150.0274 0006351 190.7224 169.3882 15.31172834114062
DONGPO 10               
1 54689U 22167H   24365.89102525  .00022491  00000+0  10437-2 0  9996
2 54689  97.6379 150.0426 0007928 179.0434 181.0817 15.20021171113952
JILIN-1 GAOFEN 03D48    
1 54695U 22167P   24365.92334550  .00021355  00000+0  98744-3 0  9998
2 54695  97.6312 149.5407 0009236 180.8196 179.3025 15.20145096113962
STAR VIBE               
1 55009U 23001A   24365.88219382  .00020025  00000+0  77053-3 0  9999
2 55009  97.3971  61.0163 0006955 214.3301 145.7489 15.26397460110444
BRO-8                   
1 55011U 23001C   24365.89560026  .00014091  00000+0  58270-3 0  9993
2 55011  97.4040  61.1379 0008378 219.5964 140.4662 15.24049891110410
CONNECTA T1.2           
1 55012U 23001D   24365.40745694  .00017533  00000+0  62262-3 0  9997
2 55012  97.4056  62.9643 0008633 207.5374 152.5409 15.29062942110484
BIRKELAND               
1 55015U 23001G   24365.85786326  .00015591  00000+0  57188-3 0  9999
2 55015  97.4072  63.6910 0007834 202.2408 157.8493 15.28029806110574
ION SCV-008             
1 55051U 23001AU  24365.51348672  .00015104  00000+0  71373-3 0  9992
2 55051  97.5984  84.8854 0019530  83.6364 276.7094 15.19336320110049
ION SCV-007             
1 55060U 23001BD  24365.89638875  .00001783  00000+0  26226-3 0  9995
2 55060  97.9745  66.4843 0011243 255.5896 104.4066 14.76644190107529
TAUSAT-2                
1 55073U 23001BS  24365.44171735  .00138216  00000+0  17166-2 0  9991
2 55073  97.3923  71.5896 0006426 156.6051 203.5499 15.59512531111094
FLOCK 4Y-23             
1 55080U 23001BZ  24365.86271958  .00073461  00000+0  15930-2 0  9990
2 55080  97.3985  69.1924 0009301 175.3004 184.8334 15.44101105110976
HUYGENS                 
1 55093U 23001CN  24365.92347081  .00016600  00000+0  60780-3 0  9998
2 55093  97.4007  63.5612 0012094 182.3056 177.8129 15.28035802110602
BDSAT-2                 
1 55098U 23001CT  24365.46178880  .00250168  00000+0  20055-2 0  9990
2 55098  97.3935  73.3978 0004640 173.2981 186.8344 15.70262016111194
SHARJAHSAT-1            
1 55104U 23001CZ  24365.85502402  .00025851  00000+0  92804-3 0  9993
2 55104  97.3984  61.9856 0008123 214.6699 145.4013 15.28629208110499
2023-003A               
1 55133U 23003A   24365.90735000  .00046786  00000+0  12121-2 0  9998
2 55133  97.1995  74.3789 0002811 247.7485 112.3463 15.38890435109787
HORUS 1                 
1 55690U 23025A   24365.92578335  .00017160  00000+0  71801-3 0  9993
2 55690  97.4041  78.8338 0003765 129.8280 230.3289 15.23633275102861
HORUS 2                 
1 55844U 23032A   24365.89387149  .00018290  00000+0  77129-3 0  9993
2 55844  97.4101  79.1550 0008598 132.9925 227.2034 15.23329076100298
GLOBAL-19               
1 55982U 23041B   24365.89350216  .00037947  00000+0  97257-3 0  9995
2 55982  42.0075  73.3603 0003694  17.5729 342.5238 15.38671539 99782
DEWASAT-2               
1 56180U 23054C   24365.90897769  .00145003  00000+0  89395-3 0  9998
2 56180  97.3448 270.9005 0005159 112.5553 247.6259 15.76732247 96804
KILICSAT                
1 56181U 23054D   24365.88843839  .00329020  00000+0  16556-2 0  9996
2 56181  97.3292 267.8298 0006802 111.1419 249.0576 15.80780094 96641
BRO-9                   
1 56185U 23054H   24365.86428854  .00031944  00000+0  81604-3 0  9996
2 56185  97.3421 260.2041 0005618 165.2398 194.9012 15.39394317 96143
ION SCV-010             
1 56192U 23054Q   24365.58687771  .00013394  00000+0  63237-3 0  9999
2 56192  97.4448 251.1499 0015229 271.8455  88.1035 15.19458478 94980
GHOST-1                 
1 56195U 23054T   24365.14490714  .00032396  00000+0  78122-3 0  9995
2 56195  97.3431 260.2676 0007007 161.6814 198.4686 15.41139206 96071
GHOST-2                 
1 56197U 23054V   24365.61401400  .00048161  00000+0  98891-3 0  9995
2 56197  97.3423 262.1660 0007109 153.3120 206.8497 15.45842119 96240
